{
  "type": "FeatureCollection",
  "features": [
    {
      "type": "Feature",
      "properties": {
        "norad_id": 31736,
        "name": "FENGYUN 1C DEB",
        "group": "fengyun-1c-debris",
        "lat": 49.68471161249886,
        "lon": -23.122225396994683,
        "alt_km": 848.170514537589,
        "timestamp": "2025-12-11T07:02:24.014205+00:00",
        "meta_object_name": "FENGYUN 1C DEB",
        "meta_object_id": "1999-025CEK",
        "meta_epoch": "2025-12-07T06:00:46.728576",
        "meta_mean_motion": 14.14178475,
        "meta_eccentricity": 0.00109922,
        "meta_inclination": 98.6782,
        "meta_ra_of_asc_node": 343.321,
        "meta_arg_of_pericenter": 257.8319,
        "meta_mean_anomaly": 102.1623,
        "meta_ephemeris_type": 0,
        "meta_classification_type": "U",
        "meta_norad_cat_id": 31736,
        "meta_element_set_no": 999,
        "meta_rev_at_epoch": 63987,
        "meta_bstar": 0.00026653832,
        "meta_mean_motion_dot": 4.65e-06,
        "meta_mean_motion_ddot": 0,
        "tle_line1": "1 31736U 99025CEK 25341.25054084  .00000465  00000+0  26654-3 0  9998",
        "tle_line2": "2 31736  98.6782 343.3210 0010992 257.8319 102.1623 14.14178475639874"
      },
      "geometry": {
        "type": "Point",
        "coordinates": [
          -23.122225396994683,
          49.68471161249886
        ]
      }
    },
    {
      "type": "Feature",
      "properties": {
        "norad_id": 31737,
        "name": "FENGYUN 1C DEB",
        "group": "fengyun-1c-debris",
        "lat": 47.51971008965523,
        "lon": 10.11156416674083,
        "alt_km": 567.7678159693287,
        "timestamp": "2025-12-11T07:02:24.014215+00:00",
        "meta_object_name": "FENGYUN 1C DEB",
        "meta_object_id": "1999-025CEL",
        "meta_epoch": "2025-12-09T09:05:57.928416",
        "meta_mean_motion": 14.68701198,
        "meta_eccentricity": 0.014913,
        "meta_inclination": 97.9175,
        "meta_ra_of_asc_node": 16.9987,
        "meta_arg_of_pericenter": 26.4033,
        "meta_mean_anomaly": 346.082,
        "meta_ephemeris_type": 0,
        "meta_classification_type": "U",
        "meta_norad_cat_id": 31737,
        "meta_element_set_no": 999,
        "meta_rev_at_epoch": 98150,
        "meta_bstar": 0.00084960801,
        "meta_mean_motion_dot": 5.81e-05,
        "meta_mean_motion_ddot": 0,
        "tle_line1": "1 31737U 99025CEL 25343.37914269  .00005810  00000+0  84961-3 0  9998",
        "tle_line2": "2 31737  97.9175  16.9987 0149130  26.4033 346.0820 14.68701198981508"
      },
      "geometry": {
        "type": "Point",
        "coordinates": [
          10.11156416674083,
          47.51971008965523
        ]
      }
    },
    {
      "type": "Feature",
      "properties": {
        "norad_id": 31738,
        "name": "FENGYUN 1C DEB",
        "group": "fengyun-1c-debris",
        "lat": 20.212453218384223,
        "lon": -123.98058734674487,
        "alt_km": 813.2470265349366,
        "timestamp": "2025-12-11T07:02:24.014229+00:00",
        "meta_object_name": "FENGYUN 1C DEB",
        "meta_object_id": "1999-025CEM",
        "meta_epoch": "2025-11-17T10:08:15.850752",
        "meta_mean_motion": 13.84884182,
        "meta_eccentricity": 0.03082109,
        "meta_inclination": 99.3633,
        "meta_ra_of_asc_node": 28.6808,
        "meta_arg_of_pericenter": 167.6176,
        "meta_mean_anomaly": 193.2777,
        "meta_ephemeris_type": 0,
        "meta_classification_type": "U",
        "meta_norad_cat_id": 31738,
        "meta_element_set_no": 999,
        "meta_rev_at_epoch": 61907,
        "meta_bstar": 0.0026324864,
        "meta_mean_motion_dot": 4.259e-05,
        "meta_mean_motion_ddot": 0,
        "tle_line1": "1 31738U 99025CEM 25321.42240568  .00004259  00000+0  26325-2 0  9990",
        "tle_line2": "2 31738  99.3633  28.6808 0308210 167.6176 193.2777 13.84884182619073"
      },
      "geometry": {
        "type": "Point",
        "coordinates": [
          -123.98058734674487,
          20.212453218384223
        ]
      }
    },
    {
      "type": "Feature",
      "properties": {
        "norad_id": 31739,
        "name": "FENGYUN 1C DEB",
        "group": "fengyun-1c-debris",
        "lat": -73.01027640420448,
        "lon": -169.61851492684548,
        "alt_km": 927.1490791365914,
        "timestamp": "2025-12-11T07:02:24.014239+00:00",
        "meta_object_name": "FENGYUN 1C DEB",
        "meta_object_id": "1999-025CEN",
        "meta_epoch": "2025-12-10T21:23:16.738080",
        "meta_mean_motion": 14.19216316,
        "meta_eccentricity": 0.01284373,
        "meta_inclination": 98.7479,
        "meta_ra_of_asc_node": 40.2463,
        "meta_arg_of_pericenter": 83.501,
        "meta_mean_anomaly": 278.077,
        "meta_ephemeris_type": 0,
        "meta_classification_type": "U",
        "meta_norad_cat_id": 31739,
        "meta_element_set_no": 999,
        "meta_rev_at_epoch": 95460,
        "meta_bstar": 0.00013586971,
        "meta_mean_motion_dot": 2.66e-06,
        "meta_mean_motion_ddot": 0,
        "tle_line1": "1 31739U 99025CEN 25344.89116595  .00000266  00000+0  13587-3 0  9990",
        "tle_line2": "2 31739  98.7479  40.2463 0128437  83.5010 278.0770 14.19216316954609"
      },
      "geometry": {
        "type": "Point",
        "coordinates": [
          -169.61851492684548,
          -73.01027640420448
        ]
      }
    },
    {
      "type": "Feature",
      "properties": {
        "norad_id": 31740,
        "name": "FENGYUN 1C DEB",
        "group": "fengyun-1c-debris",
        "lat": 80.15625429244153,
        "lon": 63.07505308928234,
        "alt_km": 727.4664627247193,
        "timestamp": "2025-12-11T07:02:24.014249+00:00",
        "meta_object_name": "FENGYUN 1C DEB",
        "meta_object_id": "1999-025CEP",
        "meta_epoch": "2025-12-07T23:23:54.081600",
        "meta_mean_motion": 14.42100668,
        "meta_eccentricity": 0.00243063,
        "meta_inclination": 99.8211,
        "meta_ra_of_asc_node": 152.6005,
        "meta_arg_of_pericenter": 82.3936,
        "meta_mean_anomaly": 69.7261,
        "meta_ephemeris_type": 0,
        "meta_classification_type": "U",
        "meta_norad_cat_id": 31740,
        "meta_element_set_no": 999,
        "meta_rev_at_epoch": 65006,
        "meta_bstar": 0.0018306589,
        "meta_mean_motion_dot": 5.989e-05,
        "meta_mean_motion_ddot": 0,
        "tle_line1": "1 31740U 99025CEP 25341.97493150  .00005989  00000+0  18307-2 0  9994",
        "tle_line2": "2 31740  99.8211 152.6005 0024306  82.3936  69.7261 14.42100668650062"
      },
      "geometry": {
        "type": "Point",
        "coordinates": [
          63.07505308928234,
          80.15625429244153
        ]
      }
    },
    {
      "type": "Feature",
      "properties": {
        "norad_id": 31742,
        "name": "FENGYUN 1C DEB",
        "group": "fengyun-1c-debris",
        "lat": -24.508387551874158,
        "lon": 20.936745758160058,
        "alt_km": 798.9582450383141,
        "timestamp": "2025-12-11T07:02:24.014259+00:00",
        "meta_object_name": "FENGYUN 1C DEB",
        "meta_object_id": "1999-025CER",
        "meta_epoch": "2025-12-10T08:24:18.010080",
        "meta_mean_motion": 14.39778728,
        "meta_eccentricity": 0.00766688,
        "meta_inclination": 98.9231,
        "meta_ra_of_asc_node": 204.0623,
        "meta_arg_of_pericenter": 336.5762,
        "meta_mean_anomaly": 23.1939,
        "meta_ephemeris_type": 0,
        "meta_classification_type": "U",
        "meta_norad_cat_id": 31742,
        "meta_element_set_no": 999,
        "meta_rev_at_epoch": 96615,
        "meta_bstar": 0.0010459487,
        "meta_mean_motion_dot": 3.346e-05,
        "meta_mean_motion_ddot": 0,
        "tle_line1": "1 31742U 99025CER 25344.35020845  .00003346  00000+0  10459-2 0  9993",
        "tle_line2": "2 31742  98.9231 204.0623 0076668 336.5762  23.1939 14.39778728966153"
      },
      "geometry": {
        "type": "Point",
        "coordinates": [
          20.936745758160058,
          -24.508387551874158
        ]
      }
    },
    {
      "type": "Feature",
      "properties": {
        "norad_id": 31743,
        "name": "FENGYUN 1C DEB",
        "group": "fengyun-1c-debris",
        "lat": -27.05723623248397,
        "lon": -82.14624978932783,
        "alt_km": 801.8981247273341,
        "timestamp": "2025-12-11T07:02:24.014269+00:00",
        "meta_object_name": "FENGYUN 1C DEB",
        "meta_object_id": "1999-025CES",
        "meta_epoch": "2025-12-10T06:43:02.821728",
        "meta_mean_motion": 14.31261876,
        "meta_eccentricity": 0.0037389,
        "meta_inclination": 99.1414,
        "meta_ra_of_asc_node": 272.0703,
        "meta_arg_of_pericenter": 226.358,
        "meta_mean_anomaly": 287.03,
        "meta_ephemeris_type": 0,
        "meta_classification_type": "U",
        "meta_norad_cat_id": 31743,
        "meta_element_set_no": 999,
        "meta_rev_at_epoch": 95605,
        "meta_bstar": 0.0025776,
        "meta_mean_motion_dot": 6.827e-05,
        "meta_mean_motion_ddot": 0,
        "tle_line1": "1 31743U 99025CES 25344.27989377  .00006827  00000+0  25776-2 0  9994",
        "tle_line2": "2 31743  99.1414 272.0703 0037389 226.3580 287.0300 14.31261876956059"
      },
      "geometry": {
        "type": "Point",
        "coordinates": [
          -82.14624978932783,
          -27.05723623248397
        ]
      }
    }
  ]
}